METHANESAT              
1 59101U 24043D   25304.78675826  .00004238  00000+0  37895-3 0  9993
2 59101  97.8183  70.4001 0011887  57.2209 303.0155 14.96369099 90479
GOSAT-GW (IBUKI GW)     
1 64694U 25141A   25303.89662016  .00001396  00000+0  25435-3 0  9993
2 64694  98.0354 240.1997 0001417  83.5939 276.5427 14.67571851 18212
GHGSAT-C1               
1 46278U 20061G   25304.82180200  .00031214  00000+0  44463-3 0  9995
2 46278  97.2366  19.8201 0002696 139.4685 220.6771 15.56275877287793
GHGSAT-C12              
1 64529U 25135B   25304.84604706  .00005726  00000+0  28370-3 0  9993
2 64529  97.4587  57.2933 0003993 240.1296 119.9542 15.18144108 20157
GHGSAT-C13              
1 64548U 25135W   25304.82863492  .00004822  00000+0  23376-3 0  9998
2 64548  97.4611  57.5076 0001805 137.6197 222.5177 15.18987754 20165
GHGSAT-C2               
1 47509U 21006DA  25304.71091196  .00009113  00000+0  27674-3 0  9994
2 47509  97.2520 350.9229 0003786 268.1018  91.9792 15.34291210264773
GHGSAT-C3               
1 52737U 22057F   25304.85018625  .00010249  00000+0  35028-3 0  9995
2 52737  97.6303  78.0552 0006211 200.9869 159.1117 15.30469257190563
GHGSAT-C4               
1 52746U 22057Q   25304.86902117  .00009928  00000+0  33946-3 0  9993
2 52746  97.6232  77.1346 0006734 186.6487 173.4665 15.30462231190574
GHGSAT-C5               
1 52744U 22057N   25304.88595074  .00009575  00000+0  32759-3 0  9992
2 52744  97.6392  79.4001 0007254 198.3818 161.7161 15.30451004190575
GHGSAT-C6               
1 56204U 23054AC  25304.80722899  .00018150  00000+0  38225-3 0  9997
2 56204  97.3165 206.6550 0009954 140.1711 220.0270 15.45271237143093
GHGSAT-C7               
1 56209U 23054AH  25304.88396060  .00014800  00000+0  32601-3 0  9997
2 56209  97.3126 206.0762 0009992 135.3796 224.8259 15.43988318143097
GHGSAT-C8               
1 56186U 23054J   25304.84567920  .00018111  00000+0  38145-3 0  9990
2 56186  97.3131 206.1386 0006727 151.4410 208.7208 15.45299423143083
SENTINEL-5P             
1 42969U 17064A   25304.82736418  .00000123  00000+0  79341-4 0  9994
2 42969  98.7712 243.7976 0001135  77.9326 282.1977 14.19500983417163
ENMAP                   
1 52159U 22033C   25304.81895563  .00000811  00000+0  12817-3 0  9992
2 52159  97.9799  25.3377 0001033  85.7928 274.3399 14.74967940192995
PRISMA                  
1 44072U 19015A   25304.85015286  .00001389  00000+0  17447-3 0  9998
2 44072  97.8741  17.9019 0001346 110.3329 249.8030 14.83700343358190
SENTINEL-2A             
1 40697U 15028A   25304.82309049  .00000214  00000+0  98397-4 0  9997
2 40697  98.5735  17.9458 0001119  93.3942 266.7369 14.30817877541073
SENTINEL-2B             
1 42063U 17013A   25304.81587750  .00000207  00000+0  95652-4 0  9991
2 42063  98.5668  17.8681 0001006 101.2588 258.8708 14.30823982451987
SENTINEL-2C             
1 60989U 24157A   25304.78108904  .00000200  00000+0  92880-4 0  9994
2 60989  98.5646  17.8901 0000968  99.4078 260.7214 14.30818947 60326
LANDSAT 8               
1 39084U 13008A   25304.76798509  .00000600  00000+0  14332-3 0  9992
2 39084  98.2119  13.4503 0001289  88.4761 271.6585 14.57107729664638
LANDSAT 9               
1 49260U 21088A   25304.80231503  .00000583  00000+0  13945-3 0  9996
2 49260  98.2144  13.5107 0001332  83.9527 276.1823 14.57094593217748
